MEAN_MOTION;ECCENTRICITY;INCLINATION;RA_OF_ASC_NODE;ARG_OF_PERICENTER;MEAN_ANOMALY;BSTAR;MEAN_MOTION_DOT;MEAN_MOTION_DDOT;TYPE
14.54719056;0.0002986;47.0014;54.2457;300.0937;59.9651;2.3153E-5;-6.6E-7;0;Orbcomm
14.54719127;0.0003004;47.0015;52.9556;302.1733;57.886;2.2766E-5;-6.7E-7;0;Orbcomm
14.54719277;0.0002995;47.0016;49.7298;304.8638;55.1964;2.3488E-5;-6.4E-7;0;Orbcomm
14.54719448;0.0002962;47.0017;47.149;306.6368;53.4244;2.4605E-5;-5.9E-7;0;Orbcomm
14.54719519;0.0002948;47.0018;44.8907;308.398;51.6639;2.3903E-5;-6.2E-7;0;Orbcomm
14.54719736;0.000293;47.0019;42.6327;310.2523;49.8105;2.8392E-5;-4.3E-7;0;Orbcomm
14.54719854;0.0002909;47.0019;40.0518;312.4832;47.5806;2.7557E-5;-4.7E-7;0;Orbcomm
14.54719854;0.0002909;47.0019;40.0518;312.4832;47.5806;2.7557E-5;-4.7E-7;0;Orbcomm
14.54719942;0.000289;47.002;38.439;313.9358;46.1287;2.7985E-5;-4.5E-7;0;Orbcomm
14.54720059;0.0002882;47.0021;36.5034;315.4489;44.6163;2.7958E-5;-4.5E-7;0;Orbcomm
14.5472031;0.0002831;47.0021;31.3419;319.716;40.3514;2.7721E-5;-4.6E-7;0;Orbcomm
14.54720325;0.0002825;47.0021;31.0193;319.989;40.0785;2.7533E-5;-4.7E-7;0;Orbcomm
14.5472058;0.000277;47.0022;26.1803;324.2302;35.8396;2.753E-5;-4.7E-7;0;Orbcomm
14.54720688;0.0002749;47.0022;24.5674;325.7578;34.3128;2.9075E-5;-4.0E-7;0;Orbcomm
14.54720868;0.0002712;47.0023;21.3413;328.5661;31.506;2.9393E-5;-3.9E-7;0;Orbcomm
14.54720957;0.0002688;47.0023;19.0832;330.7029;29.3704;2.8031E-5;-4.5E-7;0;Orbcomm
14.54721175;0.0002639;47.0024;15.5347;333.6516;26.4234;2.9823E-5;-3.7E-7;0;Orbcomm
14.5472122;0.0002631;47.0024;14.8895;334.3444;25.7309;3.0027E-5;-3.6E-7;0;Orbcomm
14.54721462;0.0002576;47.0024;10.6958;338.2563;21.8211;3.0888E-5;-3.2E-7;0;Orbcomm
14.54721481;0.0002576;47.0024;10.3732;338.5898;21.4878;3.0792E-5;-3.3E-7;0;Orbcomm
14.54721819;0.0002522;47.0025;5.857;342.7108;17.369;3.4257E-5;-1.8E-7;0;Orbcomm
14.54722086;0.0002468;47.0025;1.3408;346.9728;13.1092;3.4302E-5;-1.7E-7;0;Orbcomm
14.54722281;0.0002427;47.0025;358.1149;349.9038;10.1797;3.3568E-5;-2.1E-7;0;Orbcomm
14.54722372;0.0002411;47.0025;356.8246;351.2694;8.8148;3.4576E-5;-1.6E-7;0;Orbcomm
14.547226;0.0002366;47.0024;353.5986;354.3416;5.7441;3.5011E-5;-1.4E-7;0;Orbcomm
14.54722683;0.0002351;47.0024;352.3083;355.7156;4.3708;3.5629E-5;-1.2E-7;0;Orbcomm
14.54722894;0.00023;47.0023;348.7597;359.096;0.9919;3.4779E-5;-1.5E-7;0;Orbcomm
14.54722985;0.0002276;47.0022;347.1468;0.9068;359.182;3.4815E-5;-1.5E-7;0;Orbcomm
14.54723198;0.0002233;47.0022;344.2434;4.2018;355.8885;3.5184E-5;-1.4E-7;0;Orbcomm
14.54723496;0.0002179;47.002;339.4046;9.5458;350.5467;3.5802E-5;-1.1E-7;0;Orbcomm
14.54723505;0.0002167;47.0021;339.082;9.8023;350.2903;3.5697E-5;-1.1E-7;0;Orbcomm
14.54723782;0.0002112;47.0019;334.8882;14.4914;345.603;3.6599E-5;-8.0E-8;0;Orbcomm
14.54723862;0.0002102;47.0019;333.5979;16.0021;344.0929;3.7019E-5;-6.0E-8;0;Orbcomm
14.54723998;0.0002071;47.0018;330.6944;19.2133;340.8829;3.5618E-5;-1.2E-7;0;Orbcomm
14.54724338;0.0001996;47.0017;325.2103;25.9248;334.1735;3.6013E-5;-1.0E-7;0;Orbcomm
14.54724346;0.0001993;47.0017;324.8877;26.2891;333.8094;3.5939E-5;-1.0E-7;0;Orbcomm
14.54724622;0.0001934;47.0016;320.3713;31.8749;328.2252;3.5816E-5;-1.1E-7;0;Orbcomm
14.54724628;0.0001938;47.0016;319.7262;32.6475;327.4529;3.4596E-5;-1.6E-7;0;Orbcomm
14.54724736;0.0001905;47.0015;317.1453;35.2722;324.8288;3.3057E-5;-2.3E-7;0;Orbcomm
14.54724794;0.0001896;47.0015;315.5323;36.9143;323.1871;3.2091E-5;-2.7E-7;0;Orbcomm
14.54724844;0.0001889;47.0014;314.5646;38.1002;322.0015;3.15E-5;-3.0E-7;0;Orbcomm
14.54724958;0.000186;47.0014;312.3063;40.8631;319.2392;3.1193E-5;-3.1E-7;0;Orbcomm
14.54725011;0.000184;47.0014;311.0159;42.6092;317.4935;3.0433E-5;-3.4E-7;0;Orbcomm
14.54725231;0.0001776;47.0012;306.4993;49.2734;310.8304;2.8739E-5;-4.1E-7;0;Orbcomm
14.5472524;0.0001778;47.0012;306.1768;49.5665;310.5374;2.8724E-5;-4.1E-7;0;Orbcomm
14.54725444;0.0001737;47.001;301.6602;55.7443;304.3605;2.6411E-5;-5.1E-7;0;Orbcomm
14.54725671;0.0001704;47.0009;298.1115;60.8907;299.2147;2.8016E-5;-4.5E-7;0;Orbcomm
14.54726165;0.000166;47.0007;289.4009;72.9237;287.1829;3.0753E-5;-3.3E-7;0;Orbcomm
14.54820005;0.0002466;47.0006;281.0099;103.7843;256.3315;3.1095E-5;-3.1E-7;0;Orbcomm
14.54820811;0.0002055;47.0009;278.1083;91.7565;268.3554;3.6849E-5;-6.0E-8;0;Orbcomm
14.54820772;0.0002066;47.0008;274.2362;97.6512;262.4607;1.6941E-5;-9.2E-7;0;Orbcomm
14.54820826;0.000207;47.0008;273.591;98.4241;261.6878;1.9379E-5;-8.2E-7;0;Orbcomm
14.54820967;0.000207;47.0007;269.7192;103.7509;256.3606;1.953E-5;-8.1E-7;0;Orbcomm
14.5482119;0.0002091;47.0007;265.8477;108.4767;251.6344;2.2204E-5;-7.0E-7;0;Orbcomm
14.54821263;0.0002101;47.0007;264.2346;110.3154;249.7956;2.2022E-5;-7.0E-7;0;Orbcomm
14.5482153;0.0002119;47.0007;259.3951;117.1998;242.9102;2.1893E-5;-7.1E-7;0;Orbcomm
14.5482167;0.000213;47.0007;256.4913;121.3318;238.7775;2.1392E-5;-7.3E-7;0;Orbcomm
14.54821868;0.0002164;47.0007;251.6518;127.6916;232.4165;2.1198E-5;-7.4E-7;0;Orbcomm
14.54821955;0.0002178;47.0006;250.0386;129.7678;230.3399;2.1941E-5;-7.1E-7;0;Orbcomm
14.54822185;0.0002212;47.0006;245.5217;135.5166;224.5896;2.3761E-5;-6.3E-7;0;Orbcomm
14.54822404;0.0002249;47.0006;241.0049;141.2115;218.893;2.5457E-5;-5.6E-7;0;Orbcomm
14.54822537;0.0002282;47.0007;237.7784;145.1118;214.9916;2.5608E-5;-5.5E-7;0;Orbcomm
14.54822771;0.0002337;47.0007;233.2616;150.6064;209.4952;2.6699E-5;-5.0E-7;0;Orbcomm
14.5482296;0.0002358;47.0008;230.0353;154.3034;205.7968;2.8402E-5;-4.3E-7;0;Orbcomm
14.54823022;0.0002369;47.0008;229.0674;155.3951;204.7047;2.9423E-5;-3.8E-7;0;Orbcomm
14.54823199;0.0002412;47.0008;225.1959;159.7741;200.3239;2.8499E-5;-4.2E-7;0;Orbcomm
14.54823271;0.0002438;47.0008;223.9054;161.1929;198.9046;2.8048E-5;-4.4E-7;0;Orbcomm
14.54823596;0.0002503;47.0008;219.0659;166.4372;193.658;2.8334E-5;-4.3E-7;0;Orbcomm
14.54823695;0.0002516;47.0008;217.7755;167.6921;192.4024;2.9204E-5;-3.9E-7;0;Orbcomm
14.54823896;0.0002559;47.0008;214.2266;171.7704;188.3222;2.8208E-5;-4.4E-7;0;Orbcomm
14.54823967;0.0002569;47.0007;213.2588;172.679;187.4132;2.8828E-5;-4.1E-7;0;Orbcomm
14.54824203;0.0002623;47.0007;209.3873;176.7985;183.2917;2.9022E-5;-4.0E-7;0;Orbcomm
14.5482427;0.0002636;47.0006;208.4194;177.7441;182.3456;2.921E-5;-3.9E-7;0;Orbcomm
14.54824485;0.0002701;47.0005;204.2253;182.0194;178.0679;2.8644E-5;-4.2E-7;0;Orbcomm
14.54824713;0.0002754;47.0004;200.0311;186.2016;173.8834;2.9251E-5;-3.9E-7;0;Orbcomm
14.5482489;0.000279;47.0003;196.8047;189.418;170.6653;3.0184E-5;-3.5E-7;0;Orbcomm
14.54824979;0.000281;47.0003;195.1916;190.9032;169.1792;3.0674E-5;-3.3E-7;0;Orbcomm
14.54825179;0.000285;47.0002;191.9652;194.0494;166.0311;3.188E-5;-2.8E-7;0;Orbcomm
14.54825246;0.0002866;47.0002;190.6747;195.2152;164.8646;3.23E-5;-2.6E-7;0;Orbcomm
14.5482547;0.0002922;47.0001;186.1579;199.4511;160.6262;3.2645E-5;-2.5E-7;0;Orbcomm
14.54825742;0.0002976;47;181.3184;203.8664;156.2082;3.3237E-5;-2.2E-7;0;Orbcomm
14.54825756;0.0002977;47;180.9958;204.1727;155.9018;3.3008E-5;-2.3E-7;0;Orbcomm
14.54825769;0.0002978;47;180.6732;204.5412;155.533;3.267E-5;-2.4E-7;0;Orbcomm
14.54825984;0.0003028;47;176.4789;208.2861;151.7859;3.1488E-5;-3.0E-7;0;Orbcomm
14.54826005;0.0003028;47;176.1563;208.6361;151.4357;3.1455E-5;-3.0E-7;0;Orbcomm
14.54826234;0.0003078;47;171.6395;212.6701;147.3993;2.9742E-5;-3.7E-7;0;Orbcomm
14.54826448;0.0003124;46.9999;167.1226;216.6093;143.4577;2.7543E-5;-4.7E-7;0;Orbcomm
14.54826559;0.0003152;46.9998;164.2188;219.1943;140.8713;2.4852E-5;-5.8E-7;0;Orbcomm
14.54826739;0.0003199;46.9997;159.3793;223.2873;136.776;2.1753E-5;-7.2E-7;0;Orbcomm
14.54826844;0.0003209;46.9997;157.4435;224.919;135.1434;2.2398E-5;-6.9E-7;0;Orbcomm
14.54826961;0.0003248;46.9996;153.2491;228.3029;131.7578;2.008E-5;-7.9E-7;0;Orbcomm
14.54827117;0.0003277;46.9995;148.4095;232.4317;127.6269;1.9116E-5;-8.3E-7;0;Orbcomm
14.54827374;0.000331;46.9995;143.8924;236.1033;123.9537;2.2982E-5;-6.6E-7;0;Orbcomm
14.54827447;0.000334;46.9995;140.666;238.5422;121.5136;2.0743E-5;-7.6E-7;0;Orbcomm
14.54827524;0.0003344;46.9995;139.0528;239.8966;120.1586;2.1721E-5;-7.2E-7;0;Orbcomm
14.54827668;0.0003365;46.9996;135.8263;242.4652;117.589;2.2205E-5;-7.0E-7;0;Orbcomm
14.54827715;0.0003364;46.9997;134.5358;243.5678;116.4861;2.2671E-5;-6.8E-7;0;Orbcomm
14.54827964;0.0003388;46.9998;130.0188;247.1193;112.9334;2.4761E-5;-5.9E-7;0;Orbcomm
14.54828121;0.0003401;46.9999;125.1793;250.9883;109.0633;2.1916E-5;-7.1E-7;0;Orbcomm
14.54828343;0.0003419;47.0001;120.6624;254.499;105.5517;2.1288E-5;-7.4E-7;0;Orbcomm
14.54828421;0.0003432;47.0002;117.1133;257.2258;102.8243;1.7538E-5;-9.0E-7;0;Orbcomm
14.54828654;0.0003421;47.0003;111.3059;261.8732;98.1764;1.6116E-5;-9.6E-7;0;Orbcomm
14.54828853;0.0003404;47.0005;106.789;265.4743;94.5752;1.6604E-5;-9.4E-7;0;Orbcomm
14.54828922;0.000341;47.0006;104.5305;267.2564;92.793;1.6111E-5;-9.6E-7;0;Orbcomm
14.54829091;0.0003401;47.0007;99.3683;271.1752;88.8743;1.5507E-5;-9.9E-7;0;Orbcomm
14.54829144;0.00034;47.0008;98.4004;271.8997;88.1497;1.6249E-5;-9.6E-7;0;Orbcomm
14.54829204;0.000339;47.0008;97.4326;272.6557;87.3939;1.718E-5;-9.2E-7;0;Orbcomm
14.54829391;0.0003376;47.001;92.9157;276.1147;83.9352;1.8661E-5;-8.5E-7;0;Orbcomm
14.54829402;0.0003375;47.001;92.593;276.38;83.67;1.849E-5;-8.6E-7;0;Orbcomm
14.54829593;0.0003358;47.0012;88.0762;279.8816;80.1689;2.0279E-5;-7.8E-7;0;Orbcomm
14.54829895;0.0003328;47.0015;80.9784;285.3074;74.7442;2.1232E-5;-7.4E-7;0;Orbcomm
14.54830125;0.0003306;47.0017;76.139;288.9825;71.0701;2.1846E-5;-7.1E-7;0;Orbcomm
14.54830173;0.0003295;47.0017;74.8486;290.0416;70.0114;2.2085E-5;-7.0E-7;0;Orbcomm
14.5483034;0.0003268;47.0018;71.6223;292.4408;67.613;2.2609E-5;-6.8E-7;0;Orbcomm
14.5483045;0.0003255;47.0019;70.0093;293.6915;66.3628;2.3683E-5;-6.3E-7;0;Orbcomm
14.54830587;0.0003236;47.0019;67.1056;295.9455;64.1095;2.3135E-5;-6.6E-7;0;Orbcomm
14.54830732;0.0003216;47.002;65.17;297.5195;62.5362;2.4861E-5;-5.8E-7;0;Orbcomm
14.54830907;0.0003196;47.002;61.9437;300.0285;60.0282;2.5047E-5;-5.7E-7;0;Orbcomm
